{
    "links": {
        "self": "http://www.neowsapp.com/rest/v1/neo/54095167?api_key=iIulBulltgU6a56xZRHN4H3l9WmuAYTsLGpBGhQ2"
    },
    "id": "54095167",
    "neo_reference_id": "54095167",
    "name": "(2020 WQ4)",
    "designation": "2020 WQ4",
    "nasa_jpl_url": "http://ssd.jpl.nasa.gov/sbdb.cgi?sstr=54095167",
    "absolute_magnitude_h": 26.444,
    "estimated_diameter": {
        "kilometers": {
            "estimated_diameter_min": 0.0136695739,
            "estimated_diameter_max": 0.0305660964
        },
        "meters": {
            "estimated_diameter_min": 13.6695738812,
            "estimated_diameter_max": 30.5660964218
        },
        "miles": {
            "estimated_diameter_min": 0.0084938768,
            "estimated_diameter_max": 0.0189928859
        },
        "feet": {
            "estimated_diameter_min": 44.8476847724,
            "estimated_diameter_max": 100.2824717846
        }
    },
    "is_potentially_hazardous_asteroid": false,
    "close_approach_data": [
        {
            "close_approach_date": "2020-11-24",
            "close_approach_date_full": "2020-Nov-24 07:03",
            "epoch_date_close_approach": 1606201380000,
            "relative_velocity": {
                "kilometers_per_second": "9.8976203072",
                "kilometers_per_hour": "35631.4331058992",
                "miles_per_hour": "22139.9868651628"
            },
            "miss_distance": {
                "astronomical": "0.0240963504",
                "lunar": "9.3734803056",
                "kilometers": "3604762.694613648",
                "miles": "2239895.6730904224"
            },
            "orbiting_body": "Earth"
        }
    ],
    "orbital_data": {
        "orbit_id": "2",
        "orbit_determination_date": "2020-12-01 05:19:26",
        "first_observation_date": "2020-11-25",
        "last_observation_date": "2020-11-25",
        "data_arc_in_days": null,
        "observations_used": 47,
        "orbit_uncertainty": "8",
        "minimum_orbit_intersection": ".0229889",
        "jupiter_tisserand_invariant": "3.702",
        "epoch_osculation": "2459179.5",
        "eccentricity": ".498027258107775",
        "semi_major_axis": "1.958168387950382",
        "inclination": "10.89965488385379",
        "ascending_node_longitude": "65.13143199905038",
        "orbital_period": "1000.860338515325",
        "perihelion_distance": ".9829471547861315",
        "perihelion_argument": "334.4653846212817",
        "aphelion_distance": "2.933389621114632",
        "perihelion_time": "2459159.591359377794",
        "mean_anomaly": "7.160949783089456",
        "mean_motion": ".3596905443710792",
        "equinox": "J2000",
        "orbit_class": {
            "orbit_class_type": "APO",
            "orbit_class_description": "Near-Earth asteroid orbits which cross the Earth’s orbit similar to that of 1862 Apollo",
            "orbit_class_range": "a (semi-major axis) > 1.0 AU; q (perihelion) < 1.017 AU"
        }
    },
    "is_sentry_object": false
}